STARLINK-35238          
1 65841U 25221U   25300.50706451  .00082309  00000+0  14724-2 0  9995
2 65841  53.1593 348.3044 0001258  98.8735 261.2417 15.49310247  4322
STARLINK-35298          
1 65842U 25221V   25300.37839078  .00104175  00000+0  18503-2 0  9998
2 65842  53.1596 348.9245 0000799  98.3014 261.8086 15.49399953  4306
STARLINK-35301          
1 65843U 25221W   25300.44187328  .00084690  00000+0  15144-2 0  9998
2 65843  53.1596 348.6073 0002225  43.0270 317.0913 15.49307314  4314
STARLINK-35148          
1 65844U 25221X   25300.44221566  .00064419  00000+0  11571-2 0  9999
2 65844  53.1599 348.6115 0001724  56.6894 303.4280 15.49300849  4312
STARLINK-35302          
1 65845U 25221Y   25300.50603520  .00078390  00000+0  14036-2 0  9993
2 65845  53.1593 348.2967 0001266  75.0958 285.0191 15.49305605  4327
STARLINK-35290          
1 65846U 25221Z   25300.44084152  .00096702  00000+0  17243-2 0  9991
2 65846  53.1596 348.6027 0001824  40.9158 319.1988 15.49325637  4314
STARLINK-35262          
1 65847U 25221AA  25300.50466243  .00105447  00000+0  18783-2 0  9991
2 65847  53.1596 348.2872 0001802  74.7378 285.3830 15.49312152  5672
STARLINK-35308          
1 65848U 25221AB  25300.50569170  .00065107  00000+0  11691-2 0  9994
2 65848  53.1596 348.2941 0001319  78.4398 281.6759 15.49304669  5679
STARLINK-35231          
1 65849U 25221AC  25300.50500512  .00068334  00000+0  12263-2 0  9991
2 65849  53.1600 348.2909 0001343  81.2607 278.8554 15.49301839  5679
STARLINK-35252          
1 65850U 25221AD  25300.50431743  .00062631  00000+0  11255-2 0  9996
2 65850  53.1591 348.2864 0001180  90.8353 269.2791 15.49300426  5671
SHIYAN-30 01            
1 65851U 25222A   25300.72745223  .00004169  00000+0  39590-3 0  9998
2 65851  34.9879 216.9686 0006080 219.1886 140.8379 14.92989977  4285
SHIYAN-30 02            
1 65852U 25222B   25300.72676278  .00004156  00000+0  39459-3 0  9992
2 65852  34.9965 216.9749 0007352 221.0520 138.9632 14.92990976  4261
