CCSDS_OMM_VERS = 2.0
CREATION_DATE  = 
ORIGINATOR     = 

OBJECT_NAME    = STARLINK-35238
OBJECT_ID      = 2025-221U
CENTER_NAME    = EARTH
REF_FRAME      = TEME
TIME_SYSTEM    = UTC
MEAN_ELEMENT_THEORY = SGP/SGP4

EPOCH          = 2025-10-27T12:10:10.373664
MEAN_MOTION    = 15.49310247
ECCENTRICITY   = .0001258
INCLINATION    = 53.1593
RA_OF_ASC_NODE = 348.3044
ARG_OF_PERICENTER = 98.8735
MEAN_ANOMALY   = 261.2417

EPHEMERIS_TYPE = 0
CLASSIFICATION_TYPE = U
NORAD_CAT_ID   = 65841
ELEMENT_SET_NO = 999
REV_AT_EPOCH   = 432
BSTAR          = .14724E-2
MEAN_MOTION_DOT = .82309E-3
MEAN_MOTION_DDOT = 0

CCSDS_OMM_VERS = 2.0
CREATION_DATE  = 
ORIGINATOR     = 

OBJECT_NAME    = STARLINK-35298
OBJECT_ID      = 2025-221V
CENTER_NAME    = EARTH
REF_FRAME      = TEME
TIME_SYSTEM    = UTC
MEAN_ELEMENT_THEORY = SGP/SGP4

EPOCH          = 2025-10-27T09:04:52.963392
MEAN_MOTION    = 15.49399953
ECCENTRICITY   = .0000799
INCLINATION    = 53.1596
RA_OF_ASC_NODE = 348.9245
ARG_OF_PERICENTER = 98.3014
MEAN_ANOMALY   = 261.8086

EPHEMERIS_TYPE = 0
CLASSIFICATION_TYPE = U
NORAD_CAT_ID   = 65842
ELEMENT_SET_NO = 999
REV_AT_EPOCH   = 430
BSTAR          = .18503E-2
MEAN_MOTION_DOT = .104175E-2
MEAN_MOTION_DDOT = 0

CCSDS_OMM_VERS = 2.0
CREATION_DATE  = 
ORIGINATOR     = 

OBJECT_NAME    = STARLINK-35301
OBJECT_ID      = 2025-221W
CENTER_NAME    = EARTH
REF_FRAME      = TEME
TIME_SYSTEM    = UTC
MEAN_ELEMENT_THEORY = SGP/SGP4

EPOCH          = 2025-10-27T10:36:17.851392
MEAN_MOTION    = 15.49307314
ECCENTRICITY   = .0002225
INCLINATION    = 53.1596
RA_OF_ASC_NODE = 348.6073
ARG_OF_PERICENTER = 43.0270
MEAN_ANOMALY   = 317.0913

EPHEMERIS_TYPE = 0
CLASSIFICATION_TYPE = U
NORAD_CAT_ID   = 65843
ELEMENT_SET_NO = 999
REV_AT_EPOCH   = 431
BSTAR          = .15144E-2
MEAN_MOTION_DOT = .8469E-3
MEAN_MOTION_DDOT = 0

CCSDS_OMM_VERS = 2.0
CREATION_DATE  = 
ORIGINATOR     = 

OBJECT_NAME    = STARLINK-35148
OBJECT_ID      = 2025-221X
CENTER_NAME    = EARTH
REF_FRAME      = TEME
TIME_SYSTEM    = UTC
MEAN_ELEMENT_THEORY = SGP/SGP4

EPOCH          = 2025-10-27T10:36:47.433024
MEAN_MOTION    = 15.49300849
ECCENTRICITY   = .0001724
INCLINATION    = 53.1599
RA_OF_ASC_NODE = 348.6115
ARG_OF_PERICENTER = 56.6894
MEAN_ANOMALY   = 303.4280

EPHEMERIS_TYPE = 0
CLASSIFICATION_TYPE = U
NORAD_CAT_ID   = 65844
ELEMENT_SET_NO = 999
REV_AT_EPOCH   = 431
BSTAR          = .11571E-2
MEAN_MOTION_DOT = .64419E-3
MEAN_MOTION_DDOT = 0

CCSDS_OMM_VERS = 2.0
CREATION_DATE  = 
ORIGINATOR     = 

OBJECT_NAME    = STARLINK-35302
OBJECT_ID      = 2025-221Y
CENTER_NAME    = EARTH
REF_FRAME      = TEME
TIME_SYSTEM    = UTC
MEAN_ELEMENT_THEORY = SGP/SGP4

EPOCH          = 2025-10-27T12:08:41.441280
MEAN_MOTION    = 15.49305605
ECCENTRICITY   = .0001266
INCLINATION    = 53.1593
RA_OF_ASC_NODE = 348.2967
ARG_OF_PERICENTER = 75.0958
MEAN_ANOMALY   = 285.0191

EPHEMERIS_TYPE = 0
CLASSIFICATION_TYPE = U
NORAD_CAT_ID   = 65845
ELEMENT_SET_NO = 999
REV_AT_EPOCH   = 432
BSTAR          = .14036E-2
MEAN_MOTION_DOT = .7839E-3
MEAN_MOTION_DDOT = 0

CCSDS_OMM_VERS = 2.0
CREATION_DATE  = 
ORIGINATOR     = 

OBJECT_NAME    = STARLINK-35290
OBJECT_ID      = 2025-221Z
CENTER_NAME    = EARTH
REF_FRAME      = TEME
TIME_SYSTEM    = UTC
MEAN_ELEMENT_THEORY = SGP/SGP4

EPOCH          = 2025-10-27T10:34:48.707328
MEAN_MOTION    = 15.49325637
ECCENTRICITY   = .0001824
INCLINATION    = 53.1596
RA_OF_ASC_NODE = 348.6027
ARG_OF_PERICENTER = 40.9158
MEAN_ANOMALY   = 319.1988

EPHEMERIS_TYPE = 0
CLASSIFICATION_TYPE = U
NORAD_CAT_ID   = 65846
ELEMENT_SET_NO = 999
REV_AT_EPOCH   = 431
BSTAR          = .17243E-2
MEAN_MOTION_DOT = .96702E-3
MEAN_MOTION_DDOT = 0

CCSDS_OMM_VERS = 2.0
CREATION_DATE  = 
ORIGINATOR     = 

OBJECT_NAME    = STARLINK-35262
OBJECT_ID      = 2025-221AA
CENTER_NAME    = EARTH
REF_FRAME      = TEME
TIME_SYSTEM    = UTC
MEAN_ELEMENT_THEORY = SGP/SGP4

EPOCH          = 2025-10-27T12:06:42.833952
MEAN_MOTION    = 15.49312152
ECCENTRICITY   = .0001802
INCLINATION    = 53.1596
RA_OF_ASC_NODE = 348.2872
ARG_OF_PERICENTER = 74.7378
MEAN_ANOMALY   = 285.3830

EPHEMERIS_TYPE = 0
CLASSIFICATION_TYPE = U
NORAD_CAT_ID   = 65847
ELEMENT_SET_NO = 999
REV_AT_EPOCH   = 567
BSTAR          = .18783E-2
MEAN_MOTION_DOT = .105447E-2
MEAN_MOTION_DDOT = 0

CCSDS_OMM_VERS = 2.0
CREATION_DATE  = 
ORIGINATOR     = 

OBJECT_NAME    = STARLINK-35308
OBJECT_ID      = 2025-221AB
CENTER_NAME    = EARTH
REF_FRAME      = TEME
TIME_SYSTEM    = UTC
MEAN_ELEMENT_THEORY = SGP/SGP4

EPOCH          = 2025-10-27T12:08:11.762880
MEAN_MOTION    = 15.49304669
ECCENTRICITY   = .0001319
INCLINATION    = 53.1596
RA_OF_ASC_NODE = 348.2941
ARG_OF_PERICENTER = 78.4398
MEAN_ANOMALY   = 281.6759

EPHEMERIS_TYPE = 0
CLASSIFICATION_TYPE = U
NORAD_CAT_ID   = 65848
ELEMENT_SET_NO = 999
REV_AT_EPOCH   = 567
BSTAR          = .11691E-2
MEAN_MOTION_DOT = .65107E-3
MEAN_MOTION_DDOT = 0

CCSDS_OMM_VERS = 2.0
CREATION_DATE  = 
ORIGINATOR     = 

OBJECT_NAME    = STARLINK-35231
OBJECT_ID      = 2025-221AC
CENTER_NAME    = EARTH
REF_FRAME      = TEME
TIME_SYSTEM    = UTC
MEAN_ELEMENT_THEORY = SGP/SGP4

EPOCH          = 2025-10-27T12:07:12.442368
MEAN_MOTION    = 15.49301839
ECCENTRICITY   = .0001343
INCLINATION    = 53.1600
RA_OF_ASC_NODE = 348.2909
ARG_OF_PERICENTER = 81.2607
MEAN_ANOMALY   = 278.8554

EPHEMERIS_TYPE = 0
CLASSIFICATION_TYPE = U
NORAD_CAT_ID   = 65849
ELEMENT_SET_NO = 999
REV_AT_EPOCH   = 567
BSTAR          = .12263E-2
MEAN_MOTION_DOT = .68334E-3
MEAN_MOTION_DDOT = 0

CCSDS_OMM_VERS = 2.0
CREATION_DATE  = 
ORIGINATOR     = 

OBJECT_NAME    = STARLINK-35252
OBJECT_ID      = 2025-221AD
CENTER_NAME    = EARTH
REF_FRAME      = TEME
TIME_SYSTEM    = UTC
MEAN_ELEMENT_THEORY = SGP/SGP4

EPOCH          = 2025-10-27T12:06:13.025952
MEAN_MOTION    = 15.49300426
ECCENTRICITY   = .000118
INCLINATION    = 53.1591
RA_OF_ASC_NODE = 348.2864
ARG_OF_PERICENTER = 90.8353
MEAN_ANOMALY   = 269.2791

EPHEMERIS_TYPE = 0
CLASSIFICATION_TYPE = U
NORAD_CAT_ID   = 65850
ELEMENT_SET_NO = 999
REV_AT_EPOCH   = 567
BSTAR          = .11255E-2
MEAN_MOTION_DOT = .62631E-3
MEAN_MOTION_DDOT = 0

CCSDS_OMM_VERS = 2.0
CREATION_DATE  = 
ORIGINATOR     = 

OBJECT_NAME    = SHIYAN-30 01
OBJECT_ID      = 2025-222A
CENTER_NAME    = EARTH
REF_FRAME      = TEME
TIME_SYSTEM    = UTC
MEAN_ELEMENT_THEORY = SGP/SGP4

EPOCH          = 2025-10-27T17:27:31.872672
MEAN_MOTION    = 14.92989977
ECCENTRICITY   = .000608
INCLINATION    = 34.9879
RA_OF_ASC_NODE = 216.9686
ARG_OF_PERICENTER = 219.1886
MEAN_ANOMALY   = 140.8379

EPHEMERIS_TYPE = 0
CLASSIFICATION_TYPE = U
NORAD_CAT_ID   = 65851
ELEMENT_SET_NO = 999
REV_AT_EPOCH   = 428
BSTAR          = .3959E-3
MEAN_MOTION_DOT = .4169E-4
MEAN_MOTION_DDOT = 0

CCSDS_OMM_VERS = 2.0
CREATION_DATE  = 
ORIGINATOR     = 

OBJECT_NAME    = SHIYAN-30 02
OBJECT_ID      = 2025-222B
CENTER_NAME    = EARTH
REF_FRAME      = TEME
TIME_SYSTEM    = UTC
MEAN_ELEMENT_THEORY = SGP/SGP4

EPOCH          = 2025-10-27T17:26:32.304192
MEAN_MOTION    = 14.92990976
ECCENTRICITY   = .0007352
INCLINATION    = 34.9965
RA_OF_ASC_NODE = 216.9749
ARG_OF_PERICENTER = 221.0520
MEAN_ANOMALY   = 138.9632

EPHEMERIS_TYPE = 0
CLASSIFICATION_TYPE = U
NORAD_CAT_ID   = 65852
ELEMENT_SET_NO = 999
REV_AT_EPOCH   = 426
BSTAR          = .39459E-3
MEAN_MOTION_DOT = .4156E-4
MEAN_MOTION_DDOT = 0

